OBJECT_NAME,OBJECT_ID,EPOCH,MEAN_MOTION,ECCENTRICITY,INCLINATION,RA_OF_ASC_NODE,ARG_OF_PERICENTER,MEAN_ANOMALY,EPHEMERIS_TYPE,CLASSIFICATION_TYPE,NORAD_CAT_ID,ELEMENT_SET_NO,REV_AT_EPOCH,BSTAR,MEAN_MOTION_DOT,MEAN_MOTION_DDOT
SL-16 R/B,1994-077B,2026-06-26T22:37:54.456960,14.15577326,.0003463,70.9828,122.6381,319.4049,40.6815,0,U,23405,999,63169,.9264878E-4,.133E-5,0
ARIANE 40+ R/B,1995-021B,2026-06-26T22:39:10.632384,14.39838302,.00070788,98.4408,247.8778,164.7693,8.1637,0,U,23561,999,63496,.89294016E-4,.237E-5,0
SL-16 R/B,1995-058B,2026-06-26T19:32:00.353472,14.15512029,.00143774,71.0229,311.1461,307.1995,52.7815,0,U,23705,999,58329,-.17358712E-4,-.82E-6,0
SL-16 R/B,1996-051B,2026-06-26T19:18:25.029504,14.12449235,.00162922,70.7650,304.2950,322.9836,37.0158,0,U,24298,999,53705,.92715021E-4,.122E-5,0
ORBVIEW 2 (SEASTAR),1997-037A,2026-06-26T22:00:50.355936,14.35558141,.00033311,98.8695,345.2062,96.9894,263.1669,0,U,24883,999,52414,.10384036E-3,.252E-5,0
SL-16 R/B,1998-043G,2026-06-26T21:43:13.251072,14.26070135,.00108284,98.8368,132.1481,61.0382,299.1882,0,U,25400,999,45455,.33463247E-4,.35E-6,0
SL-16 R/B,1998-045B,2026-06-26T20:12:22.674240,14.16203739,.00089512,71.0120,312.0244,229.1792,130.8555,0,U,25407,999,44255,.14159244E-3,.233E-5,0
ISS (ZARYA),1998-067A,2026-06-26T16:06:15.917184,15.49442433,.00042994,51.6322,253.1475,235.1263,124.9322,0,U,25544,999,57322,.15268082E-3,.8101E-4,0
CZ-4B R/B,1999-025C,2026-06-26T21:29:25.513152,14.18284939,.00376795,98.6480,219.4895,32.3210,140.1044,0,U,25732,999,40364,.4731592E-4,.55E-6,0
OKEAN-O,1999-039A,2026-06-26T21:03:21.721536,14.80478305,.00013029,97.9312,236.5639,70.3432,289.7921,0,U,25860,999,45054,.85818589E-4,.604E-5,0
SL-16 R/B,1999-039B,2026-06-26T21:21:44.902656,14.81853953,.00133848,97.9833,236.7254,262.2145,97.7548,0,U,25861,999,45303,.66919631E-4,.476E-5,0
DELTA 2 R/B,1999-041E,2026-06-26T20:56:20.901696,14.12031274,.05009869,51.7630,225.1058,310.6442,45.1934,0,U,25876,999,37845,.19388815E-3,.969E-5,0
HELIOS 1B,1999-064A,2026-06-26T17:27:22.906080,14.88029946,.00025099,98.1608,83.1429,78.4437,281.7061,0,U,25977,999,70147,.14492345E-3,.1272E-4,0
TERRA,1999-068A,2026-06-26T22:55:05.226240,14.61110261,.00023535,97.9451,227.1137,161.3935,299.0284,0,U,25994,999,41103,.84256808E-4,.37E-5,0
SL-16 R/B,2000-006B,2026-06-26T21:15:19.398816,14.15838541,.00161504,71.0014,228.2329,7.8050,352.3321,0,U,26070,999,36401,.17246569E-3,.292E-5,0
TITAN 4B R/B,2000-047B,2026-06-26T22:16:54.065856,15.10249348,.00459166,67.9894,93.1533,277.1894,82.4037,0,U,26474,999,40940,.18289908E-3,.2934E-4,0
ENVISAT,2002-009A,2026-06-26T20:13:47.902656,14.39066839,.00013862,98.3838,128.9462,86.9429,327.2079,0,U,27386,999,27487,.34568132E-4,.64E-6,0
IDEFIX & ARIANE 42P R/B,2002-021B,2026-06-26T20:21:11.054304,14.31086203,.00108398,98.5943,115.2266,222.4311,137.6035,0,U,27422,999,25963,.86779609E-4,.185E-5,0
AQUA,2002-022A,2026-06-26T21:38:19.906656,14.62171922,.00007762,98.4280,147.3787,67.0038,318.4828,0,U,27424,999,28469,.16139399E-3,.763E-5,0
CZ-4B R/B,2002-024C,2026-06-26T21:10:04.908864,14.14565564,.0051179,98.8696,230.6391,73.2756,100.0086,0,U,27432,999,24467,.3521186E-4,.24E-6,0
MIDORI II (ADEOS-II),2002-056A,2026-06-26T20:50:18.521088,14.29354484,.00020845,98.7883,137.2106,64.4124,295.7272,0,U,27597,999,22589,.10958001E-3,.234E-5,0
H-2A R/B,2002-056E,2026-06-26T22:08:42.495648,14.33826031,.00697067,98.3316,134.2426,195.2393,234.0695,0,U,27601,999,22976,.81479454E-4,.191E-5,0
CZ-4B R/B,2003-049C,2026-06-26T22:14:45.541536,14.55105946,.00468999,98.6899,177.1613,258.0997,101.4938,0,U,28059,999,20248,.74248739E-4,.273E-5,0
CZ-2C R/B,2004-012C,2026-06-26T17:23:09.916512,15.80852110,.0010458,97.7078,254.5098,247.9727,112.0430,0,U,28222,999,22140,.54965276E-3,.107002E-2,0
SL-16 R/B,2004-021B,2026-06-26T22:04:09.682464,14.14607529,.00068522,71.0006,3.2632,242.3305,117.7122,0,U,28353,999,13828,.8986119E-4,.125E-5,0
CZ-4B R/B,2004-035C,2026-06-26T19:23:05.872704,15.30755512,.00290514,97.3366,210.7729,302.1008,57.7413,0,U,28415,999,19659,.25391579E-3,.7567E-4,0
CZ-2C R/B,2004-046B,2026-06-26T17:27:30.471264,14.27028463,.01390186,98.1938,85.9119,191.9143,167.8740,0,U,28480,999,12405,.42080602E-4,.72E-6,0
ARIANE 5 R/B,2004-049H,2026-06-26T23:09:14.497632,14.85459946,.00837771,98.2727,350.5956,357.8600,2.2243,0,U,28499,999,16201,.65257485E-4,.533E-5,0
CZ-2D R/B,2005-024B,2026-06-26T23:17:50.947584,15.70621293,.00013375,97.3480,197.8935,25.3349,334.7979,0,U,28738,999,15687,.51599054E-3,.63775E-3,0
ALOS (DAICHI),2006-002A,2026-06-26T21:24:22.503168,14.70068686,.00011005,98.1328,133.4292,59.3274,300.8040,0,U,28931,999,8952,.185884E-3,.1067E-4,0
