SL-16 R/B               
1 23405U 94077B   26177.94299140  .00000133  00000+0  92649-4 0  9992
2 23405  70.9828 122.6381 0003463 319.4049  40.6815 14.15577326631699
ARIANE 40+ R/B          
1 23561U 95021B   26177.94387306  .00000237  00000+0  89294-4 0  9994
2 23561  98.4408 247.8778 0007078 164.7693   8.1637 14.39838302634967
SL-16 R/B               
1 23705U 95058B   26177.81389298 -.00000082  00000+0 -17359-4 0  9995
2 23705  71.0229 311.1461 0014377 307.1995  52.7815 14.15512029583298
SL-16 R/B               
1 24298U 96051B   26177.80445636  .00000122  00000+0  92715-4 0  9997
2 24298  70.7650 304.2950 0016292 322.9836  37.0158 14.12449235537057
ORBVIEW 2 (SEASTAR)     
1 24883U 97037A   26177.91724949  .00000252  00000+0  10384-3 0  9996
2 24883  98.8695 345.2062 0003331  96.9894 263.1669 14.35558141524145
SL-16 R/B               
1 25400U 98043G   26177.90501448  .00000035  00000+0  33463-4 0  9999
2 25400  98.8368 132.1481 0010828  61.0382 299.1882 14.26070135454555
SL-16 R/B               
1 25407U 98045B   26177.84192910  .00000233  00000+0  14159-3 0  9991
2 25407  71.0120 312.0244 0008951 229.1792 130.8555 14.16203739442555
ISS (ZARYA)             
1 25544U 98067A   26177.67101756  .00008101  00000+0  15268-3 0  9990
2 25544  51.6322 253.1475 0004299 235.1263 124.9322 15.49442433573225
CZ-4B R/B               
1 25732U 99025C   26177.89543418  .00000055  00000+0  47316-4 0  9993
2 25732  98.6480 219.4895 0037679  32.3210 140.1044 14.18284939403647
OKEAN-O                 
1 25860U 99039A   26177.87733474  .00000604  00000+0  85819-4 0  9991
2 25860  97.9312 236.5639 0001302  70.3432 289.7921 14.80478305450549
SL-16 R/B               
1 25861U 99039B   26177.89010304  .00000476  00000+0  66920-4 0  9993
2 25861  97.9833 236.7254 0013384 262.2145  97.7548 14.81853953453035
DELTA 2 R/B             
1 25876U 99041E   26177.87246414  .00000969  00000+0  19389-3 0  9996
2 25876  51.7630 225.1058 0500986 310.6442  45.1934 14.12031274378451
HELIOS 1B               
1 25977U 99064A   26177.72734845  .00001272  00000+0  14492-3 0  9995
2 25977  98.1608  83.1429 0002509  78.4437 281.7061 14.88029946701475
TERRA                   
1 25994U 99068A   26177.95492160  .00000370  00000+0  84257-4 0  9999
2 25994  97.9451 227.1137 0002353 161.3935 299.0284 14.61110261411036
SL-16 R/B               
1 26070U 00006B   26177.88564119  .00000292  00000+0  17247-3 0  9992
2 26070  71.0014 228.2329 0016150   7.8050 352.3321 14.15838541364014
TITAN 4B R/B            
1 26474U 00047B   26177.92840354  .00002934  00000+0  18290-3 0  9992
2 26474  67.9894  93.1533 0045916 277.1894  82.4037 15.10249348409403
ENVISAT                 
1 27386U 02009A   26177.84291554  .00000064  00000+0  34568-4 0  9997
2 27386  98.3838 128.9462 0001386  86.9429 327.2079 14.39066839274872
IDEFIX & ARIANE 42P R/B 
1 27422U 02021B   26177.84804461  .00000185  00000+0  86780-4 0  9996
2 27422  98.5943 115.2266 0010839 222.4311 137.6035 14.31086203259634
AQUA                    
1 27424U 02022A   26177.90161929  .00000763  00000+0  16139-3 0  9993
2 27424  98.4280 147.3787 0000776  67.0038 318.4828 14.62171922284691
CZ-4B R/B               
1 27432U 02024C   26177.88200126  .00000024  00000+0  35212-4 0  9998
2 27432  98.8696 230.6391 0051179  73.2756 100.0086 14.14565564244672
MIDORI II (ADEOS-II)    
1 27597U 02056A   26177.86826992  .00000234  00000+0  10958-3 0  9990
2 27597  98.7883 137.2106 0002084  64.4124 295.7272 14.29354484225894
H-2A R/B                
1 27601U 02056E   26177.92271407  .00000191  00000+0  81479-4 0  9997
2 27601  98.3316 134.2426 0069706 195.2393 234.0695 14.33826031229766
CZ-4B R/B               
1 28059U 03049C   26177.92691599  .00000273  00000+0  74249-4 0  9994
2 28059  98.6899 177.1613 0046899 258.0997 101.4938 14.55105946202489
CZ-2C R/B               
1 28222U 04012C   26177.72442033  .00107002  00000+0  54965-3 0  9992
2 28222  97.7078 254.5098 0010458 247.9727 112.0430 15.80852110221406
SL-16 R/B               
1 28353U 04021B   26177.91955651  .00000125  00000+0  89861-4 0  9995
2 28353  71.0006   3.2632 0006852 242.3305 117.7122 14.14607529138285
CZ-4B R/B               
1 28415U 04035C   26177.80770686  .00007567  00000+0  25392-3 0  9995
2 28415  97.3366 210.7729 0029051 302.1008  57.7413 15.30755512196596
CZ-2C R/B               
1 28480U 04046B   26177.72743601  .00000072  00000+0  42081-4 0  9996
2 28480  98.1938  85.9119 0139018 191.9143 167.8740 14.27028463124057
ARIANE 5 R/B            
1 28499U 04049H   26177.96475113  .00000533  00000+0  65257-4 0  9997
2 28499  98.2727 350.5956 0083777 357.8600   2.2243 14.85459946162011
CZ-2D R/B               
1 28738U 05024B   26177.97072856  .00063775  00000+0  51599-3 0  9995
2 28738  97.3480 197.8935 0001337  25.3349 334.7979 15.70621293156878
ALOS (DAICHI)           
1 28931U 06002A   26177.89192712  .00001067  00000+0  18588-3 0  9999
2 28931  98.1328 133.4292 0001100  59.3274 300.8040 14.70068686 89527
